{
    "links": {
        "self": "http://www.neowsapp.com/rest/v1/neo/3842894?api_key=iIulBulltgU6a56xZRHN4H3l9WmuAYTsLGpBGhQ2"
    },
    "id": "3842894",
    "neo_reference_id": "3842894",
    "name": "(2019 LV5)",
    "designation": "2019 LV5",
    "nasa_jpl_url": "http://ssd.jpl.nasa.gov/sbdb.cgi?sstr=3842894",
    "absolute_magnitude_h": 21.0,
    "estimated_diameter": {
        "kilometers": {
            "estimated_diameter_min": 0.1677084622,
            "estimated_diameter_max": 0.3750075218
        },
        "meters": {
            "estimated_diameter_min": 167.7084621628,
            "estimated_diameter_max": 375.0075217981
        },
        "miles": {
            "estimated_diameter_min": 0.1042091748,
            "estimated_diameter_max": 0.2330187988
        },
        "feet": {
            "estimated_diameter_min": 550.2246310023,
            "estimated_diameter_max": 1230.3396778159
        }
    },
    "is_potentially_hazardous_asteroid": false,
    "close_approach_data": [
        {
            "close_approach_date": "2019-06-17",
            "close_approach_date_full": "2019-Jun-17 04:58",
            "epoch_date_close_approach": 1560747480000,
            "relative_velocity": {
                "kilometers_per_second": "21.6673987537",
                "kilometers_per_hour": "78002.6355132131",
                "miles_per_hour": "48467.8042720851"
            },
            "miss_distance": {
                "astronomical": "0.3096698035",
                "lunar": "120.4615535615",
                "kilometers": "46325943.006918545",
                "miles": "28785606.178204121"
            },
            "orbiting_body": "Earth"
        },
        {
            "close_approach_date": "2187-06-24",
            "close_approach_date_full": "2187-Jun-24 01:04",
            "epoch_date_close_approach": 6862928640000,
            "relative_velocity": {
                "kilometers_per_second": "25.3244645067",
                "kilometers_per_hour": "91168.0722240019",
                "miles_per_hour": "56648.2946549639"
            },
            "miss_distance": {
                "astronomical": "0.4684793459",
                "lunar": "182.2384655551",
                "kilometers": "70083512.285633233",
                "miles": "43547875.1924872954"
            },
            "orbiting_body": "Earth"
        }
    ],
    "orbital_data": {
        "orbit_id": "5",
        "orbit_determination_date": "2019-07-05 05:55:35",
        "first_observation_date": "2019-06-08",
        "last_observation_date": "2019-07-03",
        "data_arc_in_days": 25,
        "observations_used": 55,
        "orbit_uncertainty": "7",
        "minimum_orbit_intersection": ".20447",
        "jupiter_tisserand_invariant": "4.027",
        "epoch_osculation": "2459000.5",
        "eccentricity": ".3901986889071785",
        "semi_major_axis": "1.653936009045712",
        "inclination": "31.92668886853019",
        "ascending_node_longitude": "89.46056202835553",
        "orbital_period": "776.920320827115",
        "perihelion_distance": "1.008572346779704",
        "perihelion_argument": "106.6513750282924",
        "aphelion_distance": "2.29929967131172",
        "perihelion_time": "2459376.042119677295",
        "mean_anomaly": "185.985806446797",
        "mean_motion": ".4633679804085203",
        "equinox": "J2000",
        "orbit_class": {
            "orbit_class_type": "APO",
            "orbit_class_description": "Near-Earth asteroid orbits which cross the Earth’s orbit similar to that of 1862 Apollo",
            "orbit_class_range": "a (semi-major axis) > 1.0 AU; q (perihelion) < 1.017 AU"
        }
    },
    "is_sentry_object": false
}